STARLINK-1977
1 27575C 21009AD  21325.16407166  .00008103  00000-0  54290-3 0  3252
2 27575  53.0546 247.4886 0002013  68.2913  20.7334 15.06392742    16
